#cP2020 11  5  0  0  0.00000000      96 ORBIT IGb14 HLM  IGS
## 2130 345600.00000000   900.00000000 59158 0.0000000000000
+   31   G01G02G03G04G05G06G07G08G09G10G11G12G13G15G16G17G18
+        G19G20G21G22G23G24G25G26G27G28G29G30G31G32  0  0  0
+          0  0  0  0  0  0  0  0  0  0  0  0  0  0  0  0  0
+          0  0  0  0  0  0  0  0  0  0  0  0  0  0  0  0  0
+          0  0  0  0  0  0  0  0  0  0  0  0  0  0  0  0  0
++         2  2  2  2  2  2  2  2  2  2  2  2  2  1  2  2  2
++         2  1  2  1  2  2  2  2  2  2  2  3  2  2  0  0  0
++         0  0  0  0  0  0  0  0  0  0  0  0  0  0  0  0  0
++         0  0  0  0  0  0  0  0  0  0  0  0  0  0  0  0  0
++         0  0  0  0  0  0  0  0  0  0  0  0  0  0  0  0  0
%c G  cc GPS ccc cccc cccc cccc cccc ccccc ccccc ccccc ccccc
%c cc cc ccc ccc cccc cccc cccc cccc ccccc ccccc ccccc ccccc
%f  1.2500000  1.025000000  0.00000000000  0.000000000000000
%f  0.0000000  0.000000000  0.00000000000  0.000000000000000
%i    0    0    0    0      0      0      0      0         0
%i    0    0    0    0      0      0      0      0         0
/* FINAL ORBIT COMBINATION FROM WEIGHTED AVERAGE OF:        
/* cod emr esa gfz grg jpl mit ngs sio                      
/* REFERENCED TO IGS TIME (IGST) AND TO WEIGHTED MEAN POLE: 
/* PCV:IGS14_2129 OL/AL:FES2004  NONE     Y  ORB:CMB CLK:CMB
*  2020 11  5 11  0  0.00000000
PG01  20577.908896  14634.798406  -8997.583614    810.371950
PG02  -1198.603062 -16197.696882  21667.362161   -538.681594
PG03  12766.061102  18464.024025  14192.039189   -345.346414
PG04  13585.399595   8387.403910  21234.955232   -152.359309
PG05  -2005.844118 -26044.234805   4074.302841    -25.128029
PG06  14770.416021  -8818.289917  20304.027133      0.371103
PG07  25441.575623   5401.315389  -6201.429737   -408.070984
PG08   4683.443928  15116.074121 -21275.267475    -53.997406
PG09  21200.215409  -3173.666129  15630.027743   -285.589698
PG10 -12530.504303  11125.751056 -20452.602952   -497.194065
PG11  13304.620286  13348.413264 -19051.523933   -117.208465
PG12 -10096.914273 -21228.477967  12272.685806     44.517428
PG13   5561.744552 -18315.362579 -18497.234589     61.797389
PG15  -7688.599872 -14641.300180 -21083.872017   -192.108198
PG16   -305.605015  26120.579184   2929.313356   -232.188231
PG17  21327.851644 -15792.089168    759.079185    349.725397
PG18 -24925.618406  -4126.889440  -8292.637662    317.285560
PG19  19007.037952 -17278.817082   6309.273068    -82.381302
PG20 -16540.672778  -1664.570364 -20830.715181    526.143760
PG21  12021.866680  16140.203067 -16783.711705     65.108707
PG22  11121.162137  23260.941218   6903.326685   -734.180852
PG23 -15399.062773   -209.530102 -21672.087475     96.329279
PG24 -18512.043233 -15179.277918 -12125.961385      6.845037
PG25 -15169.056319  -9497.396236  19471.677746     16.931546
PG26  -6596.213278  21090.182207  14521.783486    306.826299
PG27  -7216.316870  19776.182864 -16126.306516     -6.810413
PG28  12401.367100 -12462.844641 -19382.483959    659.267345
PG29 -20075.491229   -109.540524  17378.624962   -230.198551
PG30  22005.071981  -2462.022592 -14772.719197   -330.171946
PG31 -13297.424474  10201.052580  20645.171845    -79.484909
PG32 -20619.068205  16599.631328   -247.695968    364.607315
*  2020 11  5 11 15  0.00000000
PG01  19464.299738  14386.993837 -11548.949806    810.368506
PG02   1094.760223 -15608.389119  22112.915341   -538.685971
PG03  12860.727150  19973.163028  11899.168283   -345.355520
PG04  11696.540718   9954.851310  21674.138587   -152.362686
PG05  -1589.004246 -25475.995609   6834.187636    -25.129284
PG06  16846.970152  -7999.484627  18982.891136      0.369524
PG07  25908.648220   5823.475203  -3460.740686   -408.078160
PG08   2841.905059  16644.166498 -20420.289787    -53.998590
PG09  19895.224157  -1774.301185  17451.906362   -285.594098
PG10 -13061.889043   8774.370018 -21267.621320   -497.202353
PG11  11168.121918  13807.152436 -20125.890957   -117.199171
PG12 -10068.340992 -22528.133863   9787.316058     44.512406
PG13   7309.727876 -19293.327134 -16794.822683     61.800512
PG15  -6034.445899 -16270.101149 -20371.929516   -192.105845
PG16   -599.593097  25617.449197   5784.339788   -232.193469
PG17  21345.305209 -15560.688226  -2141.762625    349.730103
PG18 -25586.825965  -4615.274989  -5578.127177    317.290582
PG19  19608.265740 -17452.013321   3480.700313    -82.376800
PG20 -17203.251111  -3894.455459 -19999.757673    526.143545
PG21   9922.249658  15724.838741 -18373.321418     65.112295
PG22  10991.508731  23936.581754   4210.727201   -734.176248
PG23 -15870.786105  -2608.160394 -21171.559077     96.333836
PG24 -17032.156007 -15001.493166 -14320.190706      6.844893
PG25 -15460.188987 -11664.693025  18053.743659     16.937538
PG26  -7214.215923  19392.935744  16480.321909    306.831395
PG27  -8622.293449  20764.377357 -14007.574293     -6.817984
PG28  12709.986345 -10090.663098 -20483.503890    659.262932
PG29 -18465.936441  -1434.707356  19019.230068   -230.205611
PG30  23389.405417  -1680.046101 -12624.828056   -330.177652
PG31 -15424.025564   9309.012693  19604.557605    -79.487058
PG32 -20650.387563  16256.874963  -3096.413366    364.610723
*  2020 11  5 11 30  0.00000000
PG01  18075.076529  14124.749948 -13907.231559    810.365539
PG02   3444.707676 -15137.914302  22199.764456   -538.690269
PG03  12969.874636  21211.022634   9401.703915   -345.364627
PG04   9870.232766  11637.883040  21740.567365   -152.366062
PG05  -1058.510167 -24633.830421   9474.621053    -25.130103
PG06  18804.358803  -7343.189262  17336.974907      0.367887
PG07  26099.430477   6129.565518   -661.902974   -408.085118
PG08   1165.087635  18186.293795 -19211.433971    -53.999818
PG09  18528.647949   -176.294290  18972.243316   -285.598498
PG10 -13733.238995   6386.814927 -21712.364223   -497.210641
PG11   8960.996897  14380.271457 -20864.665309   -117.189656
PG12 -10061.102094 -23538.247749   7133.206652     44.507801
PG13   8837.393455 -20238.763708 -14804.799647     61.803990
PG15  -4519.015509 -17903.129781 -19317.257567   -192.103492
PG16   -971.470387  24812.042156   8536.456709   -232.198176
PG17  21128.913807 -15113.251451  -5005.453235    349.734810
PG18 -25974.492494  -4975.326354  -2767.944409    317.295187
PG19  19941.084925 -17458.172345    591.643565    -82.372298
PG20 -17930.834123  -5983.444991 -18828.743473    526.143443
PG21   7636.199710  15381.193357 -19631.286890     65.115773
PG22  10792.382434  24329.557613   1446.589322   -734.171644
PG23 -16446.780717  -4904.357517 -20307.871041     96.338440
PG24 -15319.224061 -14847.495040 -16275.490292      6.844381
PG25 -15820.980344 -13636.483150  16322.187828     16.943268
PG26  -7971.343551  17531.262924  18151.789451    306.836921
PG27  -9792.394563  21650.574685 -11645.879577     -6.825556
PG28  13161.092122  -7629.376153 -21214.542841    659.258840
PG29 -16804.331490  -2956.283541  20332.094258   -230.212671
PG30  24567.727413  -1044.997647 -10261.408137   -330.183689
PG31 -17460.319997   8571.386016  18229.039341    -79.489207
PG32 -20470.482908  15691.065726  -5891.241902    364.613895
*  2020 11  5 11 45  0.00000000
PG01  16428.418762  13886.569380 -16033.201902    810.362572
PG02   5806.894190 -14796.439518  21926.538429   -538.694566
PG03  13055.729327  22162.650120   6742.784601   -345.373733
PG04   8143.069415  13404.063506  21432.971604   -152.369439
PG05   -387.129507 -23545.092478  11949.272905    -25.130921
PG06  20596.731023  -6839.122341  15394.385893      0.366250
PG07  26000.358987   6353.399959   2148.032834   -408.092075
PG08   -326.201772  19698.688451 -17668.990168    -54.001046
PG09  17143.183840   1604.875635  20164.608904   -285.602897
PG10 -14537.706935   4012.596043 -21779.821438   -497.218929
PG11   6726.285315  15068.124200 -21256.976741   -117.180140
PG12 -10036.972262 -24246.697120   4356.488939     44.503197
PG13  10131.919409 -21109.094370 -12560.784552     61.807469
PG15  -3158.843294 -19499.279485 -17936.202480   -192.101139
PG16  -1454.436412  23727.074604  11136.516890   -232.202882
PG17  20709.579283 -14425.540495  -7781.926442    349.739516
PG18 -26068.885602  -5239.660056     89.715570    317.299791
PG19  20026.447475 -17264.345951  -2307.683950    -82.367796
PG20 -18693.933838  -7898.510381 -17338.062646    526.143340
PG21   5205.321855  15133.933979 -20532.572381     65.119252
PG22  10489.132560  24445.400361  -1342.167070   -734.167039
PG23 -17103.444575  -7056.416823 -19095.858986     96.343044
PG24 -13399.550142 -14748.008832 -17959.139611      6.843870
PG25 -16219.856444 -15380.699103  14308.069078     16.948998
PG26  -8876.585098  15548.929701  19507.518183    306.842446
PG27 -10727.081890  22391.041244  -9081.556157     -6.833127
PG28  13755.989509  -5131.271266 -21561.183632    659.254747
PG29 -15136.816377  -4658.346021  21294.412790   -230.219731
PG30  25507.632795   -535.815311  -7723.052961   -330.189725
PG31 -19361.338968   7983.319396  16543.235728    -79.491355
PG32 -20111.980408  14883.802012  -8583.476578    364.617067
